CCSDS_OMM_VERS = 2.0
CREATION_DATE  = 
ORIGINATOR     = 

OBJECT_NAME    = ARIANE 5 R/B
OBJECT_ID      = 2004-049H
CENTER_NAME    = EARTH
REF_FRAME      = TEME
TIME_SYSTEM    = UTC
MEAN_ELEMENT_THEORY = SGP/SGP4

EPOCH          = 2025-10-27T10:15:55.879776
MEAN_MOTION    = 14.84873197
ECCENTRICITY   = .0085873
INCLINATION    = 98.2507
RA_OF_ASC_NODE = 99.0613
ARG_OF_PERICENTER = 63.3415
MEAN_ANOMALY   = 297.6561

EPHEMERIS_TYPE = 0
CLASSIFICATION_TYPE = U
NORAD_CAT_ID   = 28499
ELEMENT_SET_NO = 999
REV_AT_EPOCH   = 12601
BSTAR          = .16569E-3
MEAN_MOTION_DOT = .1441E-4
MEAN_MOTION_DDOT = 0

CCSDS_OMM_VERS = 2.0
CREATION_DATE  = 
ORIGINATOR     = 

OBJECT_NAME    = CZ-2D R/B
OBJECT_ID      = 2005-024B
CENTER_NAME    = EARTH
REF_FRAME      = TEME
TIME_SYSTEM    = UTC
MEAN_ELEMENT_THEORY = SGP/SGP4

EPOCH          = 2025-10-27T11:34:15.007296
MEAN_MOTION    = 15.50114162
ECCENTRICITY   = .0007371
INCLINATION    = 97.3686
RA_OF_ASC_NODE = 306.8119
ARG_OF_PERICENTER = 133.6146
MEAN_ANOMALY   = 226.5718

EPHEMERIS_TYPE = 0
CLASSIFICATION_TYPE = U
NORAD_CAT_ID   = 28738
ELEMENT_SET_NO = 999
REV_AT_EPOCH   = 11908
BSTAR          = .48955E-3
MEAN_MOTION_DOT = .27535E-3
MEAN_MOTION_DDOT = 0

CCSDS_OMM_VERS = 2.0
CREATION_DATE  = 
ORIGINATOR     = 

OBJECT_NAME    = ALOS (DAICHI)
OBJECT_ID      = 2006-002A
CENTER_NAME    = EARTH
REF_FRAME      = TEME
TIME_SYSTEM    = UTC
MEAN_ELEMENT_THEORY = SGP/SGP4

EPOCH          = 2025-10-27T20:47:17.481984
MEAN_MOTION    = 14.69256724
ECCENTRICITY   = .0001774
INCLINATION    = 98.1015
RA_OF_ASC_NODE = 252.7028
ARG_OF_PERICENTER = 55.9070
MEAN_ANOMALY   = 304.2304

EPHEMERIS_TYPE = 0
CLASSIFICATION_TYPE = U
NORAD_CAT_ID   = 28931
ELEMENT_SET_NO = 999
REV_AT_EPOCH   = 5397
BSTAR          = .42693E-3
MEAN_MOTION_DOT = .2468E-4
MEAN_MOTION_DDOT = 0

CCSDS_OMM_VERS = 2.0
CREATION_DATE  = 
ORIGINATOR     = 

OBJECT_NAME    = H-2A R/B
OBJECT_ID      = 2006-002B
CENTER_NAME    = EARTH
REF_FRAME      = TEME
TIME_SYSTEM    = UTC
MEAN_ELEMENT_THEORY = SGP/SGP4

EPOCH          = 2025-10-27T20:23:26.940768
MEAN_MOTION    = 15.13351931
ECCENTRICITY   = .0055389
INCLINATION    = 98.2288
RA_OF_ASC_NODE = 71.9084
ARG_OF_PERICENTER = 333.4101
MEAN_ANOMALY   = 26.4289

EPHEMERIS_TYPE = 0
CLASSIFICATION_TYPE = U
NORAD_CAT_ID   = 28932
ELEMENT_SET_NO = 999
REV_AT_EPOCH   = 7432
BSTAR          = .5571E-3
MEAN_MOTION_DOT = .10241E-3
MEAN_MOTION_DDOT = 0

CCSDS_OMM_VERS = 2.0
CREATION_DATE  = 
ORIGINATOR     = 

OBJECT_NAME    = RESURS-DK 1
OBJECT_ID      = 2006-021A
CENTER_NAME    = EARTH
REF_FRAME      = TEME
TIME_SYSTEM    = UTC
MEAN_ELEMENT_THEORY = SGP/SGP4

EPOCH          = 2025-10-27T20:25:06.046752
MEAN_MOTION    = 15.11785208
ECCENTRICITY   = .0006912
INCLINATION    = 69.9334
RA_OF_ASC_NODE = 220.3922
ARG_OF_PERICENTER = 297.8326
MEAN_ANOMALY   = 62.2139

EPHEMERIS_TYPE = 0
CLASSIFICATION_TYPE = U
NORAD_CAT_ID   = 29228
ELEMENT_SET_NO = 999
REV_AT_EPOCH   = 6744
BSTAR          = .22736E-3
MEAN_MOTION_DOT = .3785E-4
MEAN_MOTION_DDOT = 0

CCSDS_OMM_VERS = 2.0
CREATION_DATE  = 
ORIGINATOR     = 

OBJECT_NAME    = CZ-4B R/B
OBJECT_ID      = 2006-046C
CENTER_NAME    = EARTH
REF_FRAME      = TEME
TIME_SYSTEM    = UTC
MEAN_ELEMENT_THEORY = SGP/SGP4

EPOCH          = 2025-10-27T13:14:10.884768
MEAN_MOTION    = 15.15198781
ECCENTRICITY   = .0034758
INCLINATION    = 97.5799
RA_OF_ASC_NODE = 340.8179
ARG_OF_PERICENTER = 11.2412
MEAN_ANOMALY   = 348.9589

EPHEMERIS_TYPE = 0
CLASSIFICATION_TYPE = U
NORAD_CAT_ID   = 29507
ELEMENT_SET_NO = 999
REV_AT_EPOCH   = 3987
BSTAR          = .30538E-3
MEAN_MOTION_DOT = .5752E-4
MEAN_MOTION_DDOT = 0

CCSDS_OMM_VERS = 2.0
CREATION_DATE  = 
ORIGINATOR     = 

OBJECT_NAME    = CZ-2C R/B
OBJECT_ID      = 2007-010B
CENTER_NAME    = EARTH
REF_FRAME      = TEME
TIME_SYSTEM    = UTC
MEAN_ELEMENT_THEORY = SGP/SGP4

EPOCH          = 2025-10-27T20:29:28.720032
MEAN_MOTION    = 14.20182610
ECCENTRICITY   = .0058267
INCLINATION    = 98.3946
RA_OF_ASC_NODE = 55.8216
ARG_OF_PERICENTER = 321.3286
MEAN_ANOMALY   = 38.3726

EPHEMERIS_TYPE = 0
CLASSIFICATION_TYPE = U
NORAD_CAT_ID   = 31114
ELEMENT_SET_NO = 999
REV_AT_EPOCH   = 96086
BSTAR          = .11936E-3
MEAN_MOTION_DOT = .218E-5
MEAN_MOTION_DDOT = 0

CCSDS_OMM_VERS = 2.0
CREATION_DATE  = 
ORIGINATOR     = 

OBJECT_NAME    = COSMO-SKYMED 1
OBJECT_ID      = 2007-023A
CENTER_NAME    = EARTH
REF_FRAME      = TEME
TIME_SYSTEM    = UTC
MEAN_ELEMENT_THEORY = SGP/SGP4

EPOCH          = 2025-10-27T19:44:20.556960
MEAN_MOTION    = 14.95281019
ECCENTRICITY   = .0001325
INCLINATION    = 97.8876
RA_OF_ASC_NODE = 125.9334
ARG_OF_PERICENTER = 80.8077
MEAN_ANOMALY   = 279.3293

EPHEMERIS_TYPE = 0
CLASSIFICATION_TYPE = U
NORAD_CAT_ID   = 31598
ELEMENT_SET_NO = 999
REV_AT_EPOCH   = 99503
BSTAR          = .32372E-3
MEAN_MOTION_DOT = .3506E-4
MEAN_MOTION_DDOT = 0

CCSDS_OMM_VERS = 2.0
CREATION_DATE  = 
ORIGINATOR     = 

OBJECT_NAME    = COSMOS 2428
OBJECT_ID      = 2007-029A
CENTER_NAME    = EARTH
REF_FRAME      = TEME
TIME_SYSTEM    = UTC
MEAN_ELEMENT_THEORY = SGP/SGP4

EPOCH          = 2025-10-27T20:40:18.740064
MEAN_MOTION    = 14.12894108
ECCENTRICITY   = .0001738
INCLINATION    = 70.9365
RA_OF_ASC_NODE = 122.1978
ARG_OF_PERICENTER = 124.3813
MEAN_ANOMALY   = 235.7472

EPHEMERIS_TYPE = 0
CLASSIFICATION_TYPE = U
NORAD_CAT_ID   = 31792
ELEMENT_SET_NO = 999
REV_AT_EPOCH   = 94533
BSTAR          = -.98844E-4
MEAN_MOTION_DOT = -.232E-5
MEAN_MOTION_DDOT = 0

CCSDS_OMM_VERS = 2.0
CREATION_DATE  = 
ORIGINATOR     = 

OBJECT_NAME    = SL-16 R/B
OBJECT_ID      = 2007-029B
CENTER_NAME    = EARTH
REF_FRAME      = TEME
TIME_SYSTEM    = UTC
MEAN_ELEMENT_THEORY = SGP/SGP4

EPOCH          = 2025-10-27T21:02:57.755040
MEAN_MOTION    = 14.14804063
ECCENTRICITY   = .0002544
INCLINATION    = 70.9735
RA_OF_ASC_NODE = 91.5598
ARG_OF_PERICENTER = 262.7700
MEAN_ANOMALY   = 259.0366

EPHEMERIS_TYPE = 0
CLASSIFICATION_TYPE = U
NORAD_CAT_ID   = 31793
ELEMENT_SET_NO = 999
REV_AT_EPOCH   = 94658
BSTAR          = -.28581E-4
MEAN_MOTION_DOT = -.103E-5
MEAN_MOTION_DDOT = 0

CCSDS_OMM_VERS = 2.0
CREATION_DATE  = 
ORIGINATOR     = 

OBJECT_NAME    = KORONAS-FOTON
OBJECT_ID      = 2009-003A
CENTER_NAME    = EARTH
REF_FRAME      = TEME
TIME_SYSTEM    = UTC
MEAN_ELEMENT_THEORY = SGP/SGP4

EPOCH          = 2025-10-27T18:20:06.525024
MEAN_MOTION    = 15.39676446
ECCENTRICITY   = .0010662
INCLINATION    = 82.4325
RA_OF_ASC_NODE = 53.6795
ARG_OF_PERICENTER = 274.8479
MEAN_ANOMALY   = 85.1548

EPHEMERIS_TYPE = 0
CLASSIFICATION_TYPE = U
NORAD_CAT_ID   = 33504
ELEMENT_SET_NO = 999
REV_AT_EPOCH   = 92526
BSTAR          = .37725E-3
MEAN_MOTION_DOT = .14961E-3
MEAN_MOTION_DDOT = 0

CCSDS_OMM_VERS = 2.0
CREATION_DATE  = 
ORIGINATOR     = 

OBJECT_NAME    = CZ-2C R/B
OBJECT_ID      = 2011-030B
CENTER_NAME    = EARTH
REF_FRAME      = TEME
TIME_SYSTEM    = UTC
MEAN_ELEMENT_THEORY = SGP/SGP4

EPOCH          = 2025-10-27T20:16:56.817120
MEAN_MOTION    = 14.80654802
ECCENTRICITY   = .0054621
INCLINATION    = 97.8337
RA_OF_ASC_NODE = 255.9956
ARG_OF_PERICENTER = 63.3908
MEAN_ANOMALY   = 349.6194

EPHEMERIS_TYPE = 0
CLASSIFICATION_TYPE = U
NORAD_CAT_ID   = 37731
ELEMENT_SET_NO = 999
REV_AT_EPOCH   = 77043
BSTAR          = .30782E-3
MEAN_MOTION_DOT = .2372E-4
MEAN_MOTION_DDOT = 0

