ARIANE 5 R/B            
1 28499U 04049H   25300.42773009  .00001441  00000+0  16569-3 0  9990
2 28499  98.2507  99.0613 0085873  63.3415 297.6561 14.84873197126014
CZ-2D R/B               
1 28738U 05024B   25300.48211814  .00027535  00000+0  48955-3 0  9993
2 28738  97.3686 306.8119 0007371 133.6146 226.5718 15.50114162119085
ALOS (DAICHI)           
1 28931U 06002A   25300.86617456  .00002468  00000+0  42693-3 0  9990
2 28931  98.1015 252.7028 0001774  55.9070 304.2304 14.69256724 53976
H-2A R/B                
1 28932U 06002B   25300.84961737  .00010241  00000+0  55710-3 0  9995
2 28932  98.2288  71.9084 0055389 333.4101  26.4289 15.13351931 74326
RESURS-DK 1             
1 29228U 06021A   25300.85076443  .00003785  00000+0  22736-3 0  9994
2 29228  69.9334 220.3922 0006912 297.8326  62.2139 15.11785208 67446
CZ-4B R/B               
1 29507U 06046C   25300.55151487  .00005752  00000+0  30538-3 0  9995
2 29507  97.5799 340.8179 0034758  11.2412 348.9589 15.15198781 39870
CZ-2C R/B               
1 31114U 07010B   25300.85380463  .00000218  00000+0  11936-3 0  9998
2 31114  98.3946  55.8216 0058267 321.3286  38.3726 14.20182610960864
COSMO-SKYMED 1          
1 31598U 07023A   25300.82246015  .00003506  00000+0  32372-3 0  9999
2 31598  97.8876 125.9334 0001325  80.8077 279.3293 14.95281019995032
COSMOS 2428             
1 31792U 07029A   25300.86132801 -.00000232  00000+0 -98844-4 0  9994
2 31792  70.9365 122.1978 0001738 124.3813 235.7472 14.12894108945337
SL-16 R/B               
1 31793U 07029B   25300.87705735 -.00000103  00000+0 -28581-4 0  9996
2 31793  70.9735  91.5598 0002544 262.7700 259.0366 14.14804063946586
KORONAS-FOTON           
1 33504U 09003A   25300.76396441  .00014961  00000+0  37725-3 0  9994
2 33504  82.4325  53.6795 0010662 274.8479  85.1548 15.39676446925268
CZ-2C R/B               
1 37731U 11030B   25300.84510205  .00002372  00000+0  30782-3 0  9997
2 37731  97.8337 255.9956 0054621  63.3908 349.6194 14.80654802770433
